{
  "type": "FeatureCollection",
  "features": [
    {
      "type": "Feature",
      "properties": {
        "norad_id": 34846,
        "name": "COSMOS 2251 DEB",
        "group": "cosmos-2251-debris",
        "lat": 49.66110472484836,
        "lon": -71.97171480413965,
        "alt_km": 725.9299242346988,
        "timestamp": "2025-12-09T05:43:21.121764+00:00",
        "meta_object_name": "COSMOS 2251 DEB",
        "meta_object_id": "1993-036ABQ",
        "meta_epoch": "2025-12-08T19:31:38.555616",
        "meta_mean_motion": 14.47176591,
        "meta_eccentricity": 0.0026032,
        "meta_inclination": 74.0308,
        "meta_ra_of_asc_node": 269.1166,
        "meta_arg_of_pericenter": 335.9542,
        "meta_mean_anomaly": 24.0398,
        "meta_ephemeris_type": 0,
        "meta_classification_type": "U",
        "meta_norad_cat_id": 34846,
        "meta_element_set_no": 999,
        "meta_rev_at_epoch": 87347,
        "meta_bstar": 0.001624,
        "meta_mean_motion_dot": 5.931e-05,
        "meta_mean_motion_ddot": 0,
        "tle_line1": "1 34846U 93036ABQ 25342.81364069  .00005931  00000+0  16240-2 0  9991",
        "tle_line2": "2 34846  74.0308 269.1166 0026032 335.9542  24.0398 14.47176591873474"
      },
      "geometry": {
        "type": "Point",
        "coordinates": [
          -71.97171480413965,
          49.66110472484836
        ]
      }
    },
    {
      "type": "Feature",
      "properties": {
        "norad_id": 34852,
        "name": "COSMOS 2251 DEB",
        "group": "cosmos-2251-debris",
        "lat": -61.90879786231783,
        "lon": 121.85084724871427,
        "alt_km": 782.0751918148262,
        "timestamp": "2025-12-09T05:43:21.121775+00:00",
        "meta_object_name": "COSMOS 2251 DEB",
        "meta_object_id": "1993-036ABW",
        "meta_epoch": "2025-12-08T03:30:58.051008",
        "meta_mean_motion": 14.36998906,
        "meta_eccentricity": 0.00159572,
        "meta_inclination": 74.0329,
        "meta_ra_of_asc_node": 271.4188,
        "meta_arg_of_pericenter": 15.6529,
        "meta_mean_anomaly": 344.5114,
        "meta_ephemeris_type": 0,
        "meta_classification_type": "U",
        "meta_norad_cat_id": 34852,
        "meta_element_set_no": 999,
        "meta_rev_at_epoch": 87468,
        "meta_bstar": 0.00020021902,
        "meta_mean_motion_dot": 5.68e-06,
        "meta_mean_motion_ddot": 0,
        "tle_line1": "1 34852U 93036ABW 25342.14650522  .00000568  00000+0  20022-3 0  9991",
        "tle_line2": "2 34852  74.0329 271.4188 0015957  15.6529 344.5114 14.36998906874685"
      },
      "geometry": {
        "type": "Point",
        "coordinates": [
          121.85084724871427,
          -61.90879786231783
        ]
      }
    },
    {
      "type": "Feature",
      "properties": {
        "norad_id": 34854,
        "name": "COSMOS 2251 DEB",
        "group": "cosmos-2251-debris",
        "lat": 11.924191232948605,
        "lon": 168.91466377679888,
        "alt_km": 644.7599972876951,
        "timestamp": "2025-12-09T05:43:21.121785+00:00",
        "meta_object_name": "COSMOS 2251 DEB",
        "meta_object_id": "1993-036ABY",
        "meta_epoch": "2025-12-06T06:07:08.868864",
        "meta_mean_motion": 14.76535535,
        "meta_eccentricity": 0.00662211,
        "meta_inclination": 74.0279,
        "meta_ra_of_asc_node": 171.2927,
        "meta_arg_of_pericenter": 284.2541,
        "meta_mean_anomaly": 75.1285,
        "meta_ephemeris_type": 0,
        "meta_classification_type": "U",
        "meta_norad_cat_id": 34854,
        "meta_element_set_no": 999,
        "meta_rev_at_epoch": 71786,
        "meta_bstar": 0.0010983798,
        "meta_mean_motion_dot": 7.913e-05,
        "meta_mean_motion_ddot": 0,
        "tle_line1": "1 34854U 93036ABY 25340.25496376  .00007913  00000+0  10984-2 0  9994",
        "tle_line2": "2 34854  74.0279 171.2927 0066221 284.2541  75.1285 14.76535535717868"
      },
      "geometry": {
        "type": "Point",
        "coordinates": [
          168.91466377679888,
          11.924191232948605
        ]
      }
    },
    {
      "type": "Feature",
      "properties": {
        "norad_id": 34856,
        "name": "COSMOS 2251 DEB",
        "group": "cosmos-2251-debris",
        "lat": 68.96460280454987,
        "lon": 140.3120054420964,
        "alt_km": 563.242637274695,
        "timestamp": "2025-12-09T05:43:21.121796+00:00",
        "meta_object_name": "COSMOS 2251 DEB",
        "meta_object_id": "1993-036ACA",
        "meta_epoch": "2025-12-07T07:16:15.266208",
        "meta_mean_motion": 15.05609422,
        "meta_eccentricity": 0.00340835,
        "meta_inclination": 73.9995,
        "meta_ra_of_asc_node": 96.0289,
        "meta_arg_of_pericenter": 234.6289,
        "meta_mean_anomaly": 154.9429,
        "meta_ephemeris_type": 0,
        "meta_classification_type": "U",
        "meta_norad_cat_id": 34856,
        "meta_element_set_no": 999,
        "meta_rev_at_epoch": 89030,
        "meta_bstar": 0.0029359125,
        "meta_mean_motion_dot": 0.00043129,
        "meta_mean_motion_ddot": 0,
        "tle_line1": "1 34856U 93036ACA 25341.30295447  .00043129  00000+0  29359-2 0  9994",
        "tle_line2": "2 34856  73.9995  96.0289 0034083 234.6289 154.9429 15.05609422890304"
      },
      "geometry": {
        "type": "Point",
        "coordinates": [
          140.3120054420964,
          68.96460280454987
        ]
      }
    },
    {
      "type": "Feature",
      "properties": {
        "norad_id": 34857,
        "name": "COSMOS 2251 DEB",
        "group": "cosmos-2251-debris",
        "lat": -38.820510322430245,
        "lon": 100.17352179364346,
        "alt_km": 695.3450479457879,
        "timestamp": "2025-12-09T05:43:21.121806+00:00",
        "meta_object_name": "COSMOS 2251 DEB",
        "meta_object_id": "1993-036ACB",
        "meta_epoch": "2025-12-08T10:25:24.353760",
        "meta_mean_motion": 14.58817538,
        "meta_eccentricity": 0.00660207,
        "meta_inclination": 74.0156,
        "meta_ra_of_asc_node": 115.0408,
        "meta_arg_of_pericenter": 240.2546,
        "meta_mean_anomaly": 177.0237,
        "meta_ephemeris_type": 0,
        "meta_classification_type": "U",
        "meta_norad_cat_id": 34857,
        "meta_element_set_no": 999,
        "meta_rev_at_epoch": 87838,
        "meta_bstar": 0.0017018109,
        "meta_mean_motion_dot": 8.182e-05,
        "meta_mean_motion_ddot": 0,
        "tle_line1": "1 34857U 93036ACB 25342.43430965  .00008182  00000+0  17018-2 0  9995",
        "tle_line2": "2 34857  74.0156 115.0408 0066020 240.2546 177.0237 14.58817538878389"
      },
      "geometry": {
        "type": "Point",
        "coordinates": [
          100.17352179364346,
          -38.820510322430245
        ]
      }
    },
    {
      "type": "Feature",
      "properties": {
        "norad_id": 34859,
        "name": "COSMOS 2251 DEB",
        "group": "cosmos-2251-debris",
        "lat": -62.17863226985579,
        "lon": -45.925510870823224,
        "alt_km": 529.6745694615965,
        "timestamp": "2025-12-09T05:43:21.121817+00:00",
        "meta_object_name": "COSMOS 2251 DEB",
        "meta_object_id": "1993-036ACD",
        "meta_epoch": "2025-12-08T11:32:59.096256",
        "meta_mean_motion": 15.13637919,
        "meta_eccentricity": 0.00030343,
        "meta_inclination": 74.0307,
        "meta_ra_of_asc_node": 348.5102,
        "meta_arg_of_pericenter": 325.5019,
        "meta_mean_anomaly": 163.1698,
        "meta_ephemeris_type": 0,
        "meta_classification_type": "U",
        "meta_norad_cat_id": 34859,
        "meta_element_set_no": 999,
        "meta_rev_at_epoch": 88294,
        "meta_bstar": 0.0055058518,
        "meta_mean_motion_dot": 0.00100346,
        "meta_mean_motion_ddot": 0,
        "tle_line1": "1 34859U 93036ACD 25342.48123954  .00100346  00000+0  55059-2 0  9991",
        "tle_line2": "2 34859  74.0307 348.5102 0003034 325.5019 163.1698 15.13637919882940"
      },
      "geometry": {
        "type": "Point",
        "coordinates": [
          -45.925510870823224,
          -62.17863226985579
        ]
      }
    },
    {
      "type": "Feature",
      "properties": {
        "norad_id": 34861,
        "name": "COSMOS 2251 DEB",
        "group": "cosmos-2251-debris",
        "lat": -10.430610433034634,
        "lon": 54.97795537563254,
        "alt_km": 562.4216882491546,
        "timestamp": "2025-12-09T05:43:21.121827+00:00",
        "meta_object_name": "COSMOS 2251 DEB",
        "meta_object_id": "1993-036ACF",
        "meta_epoch": "2025-12-08T16:03:17.309376",
        "meta_mean_motion": 15.02178705,
        "meta_eccentricity": 0.000649,
        "meta_inclination": 74.019,
        "meta_ra_of_asc_node": 59.1641,
        "meta_arg_of_pericenter": 60.5092,
        "meta_mean_anomaly": 90.3839,
        "meta_ephemeris_type": 0,
        "meta_classification_type": "U",
        "meta_norad_cat_id": 34861,
        "meta_element_set_no": 999,
        "meta_rev_at_epoch": 88031,
        "meta_bstar": 0.0031769,
        "meta_mean_motion_dot": 0.00042072,
        "meta_mean_motion_ddot": 0,
        "tle_line1": "1 34861U 93036ACF 25342.66895034  .00042072  00000+0  31769-2 0  9992",
        "tle_line2": "2 34861  74.0190  59.1641 0006490  60.5092  90.3839 15.02178705880310"
      },
      "geometry": {
        "type": "Point",
        "coordinates": [
          54.97795537563254,
          -10.430610433034634
        ]
      }
    }
  ]
}